ONEWEB-0634             
1 56075U 23043AF  25096.96010741 -.00000288  00000+0 -80017-3 0  9993
2 56075  87.9116 346.1488 0001398  79.8045 280.3243 13.15547514 99045
ONEWEB-0635             
1 56076U 23043AG  25096.95536302 -.00000053  00000+0 -17377-3 0  9998
2 56076  87.9089 346.1549 0002124  81.7563 278.3808 13.15548872 99073
ONEWEB-0636             
1 56077U 23043AH  25096.94743316 -.00000079  00000+0 -24312-3 0  9998
2 56077  87.9100 346.1597 0002057  80.6021 279.5342 13.15546750 99050
ONEWEB-0637             
1 56078U 23043AJ  25096.94108810 -.00000329  00000+0 -90896-3 0  9991
2 56078  87.9122 346.1515 0001896  89.1294 271.0054 13.15549317 99072
ONEWEB-0651             
1 56080U 23043AL  25097.15976719  .00000056  00000+0  11510-3 0  9990
2 56080  87.9120 346.1050 0002055  86.3914 273.7451 13.15549828 99092
ONEWEB-0718             
1 56081U 23043AM  25096.92683909  .00000007  00000+0 -14524-4 0  9997
2 56081  87.9120 346.1354 0001323  85.6150 274.5132 13.15550599 99071
ONEWEB-0561             
1 56710U 23068A   25096.76290681  .00000083  00000+0  17272-3 0  9991
2 56710  87.9318   1.3499 0002440  79.4871 280.6537 13.20772966 91890
